ECHOSTAR 14             
1 36499U 10010A   23048.35535566 -.00000005  00000+0  00000+0 0  9992
2 36499   0.0124 143.8616 0001989 175.3258 196.8910  1.00273455 47346
SES-1                   
1 36516U 10016A   23048.00275002 -.00000117  00000+0  00000+0 0  9990
2 36516   0.0612 285.4421 0002209  44.0407  77.2128  1.00271131 46946
ASTRA 3B                
1 36581U 10021A   23048.37271646  .00000132  00000+0  00000+0 0  9994
2 36581   0.0663  58.8640 0003063 260.6472 345.2056  1.00270743 46458
COMSATBW-2              
1 36582U 10021B   23047.91906003  .00000085  00000+0  00000+0 0  9993
2 36582   0.0221 211.0215 0002031 125.6962 153.9837  1.00267061 46795
BADR-5                  
1 36592U 10025A   23048.12549244  .00000141  00000+0  00000+0 0  9995
2 36592   0.0407 119.6692 0000184 248.2780 210.0139  1.00271066 46702
COMS 1                  
1 36744U 10032A   23047.87024771 -.00000348  00000+0  00000+0 0  9996
2 36744   1.6834  90.8348 0000920 276.3033 220.8835  1.00269343 38899
ARABSAT-5A              
1 36745U 10032B   23047.85080993  .00000151  00000+0  00000+0 0  9994
2 36745   0.0526  39.7992 0003108 303.0213 140.5267  1.00276435 46455
ECHOSTAR 15             
1 36792U 10034A   23047.83241814 -.00000283  00000+0  00000+0 0  9994
2 36792   0.0589 285.5774 0001935  31.2195  67.7604  1.00271453 46124
BEIDOU 5                
1 36828U 10036A   23047.84222051 -.00000146  00000+0  00000+0 0  9997
2 36828  54.2091 173.9965 0035053 185.0439 199.0022  1.00280767 46033
NILESAT 201             
1 36830U 10037A   23047.91505045 -.00000060  00000+0  00000+0 0  9991
2 36830   0.0472 209.1591 0002930 119.5797 140.2792  1.00271448 46096
RASCOM-QAF 1R           
1 36831U 10037B   23048.34723971  .00000014  00000+0  00000+0 0  9998
2 36831   0.0263 117.9068 0006290 192.6004 324.4248  1.00272726 46098
AEHF-1 (USA 214)        
1 36868U 10039A   23048.38382803  .00000018  00000+0  00000+0 0  9993
2 36868   5.1487  83.5746 0002002 343.2579 222.4201  1.00269077 46249
QZS-1 (MICHIBIKI-1)     
1 37158U 10045A   23047.67249877 -.00000213  00000+0  00000+0 0  9995
2 37158  42.5946 130.0265 0765612 270.7024 120.3634  1.00243318 45541
XM-5                    
1 37185U 10053A   23047.89334640 -.00000025  00000+0  00000+0 0  9992
2 37185   0.0096 113.4208 0000712  66.6826 172.8873  1.00272838 45257
BSAT-3B                 
1 37207U 10056B   23047.72038821 -.00000352  00000+0  00000+0 0  9997
2 37207   0.1060 292.7296 0003984  44.2573 178.6109  1.00268964 39925
BEIDOU 6                
1 37210U 10057A   23048.45035575 -.00000117  00000+0  00000+0 0  9995
2 37210   0.9917  54.9289 0003519 172.7335 241.6907  1.00270675 45099
SKYTERRA 1              
1 37218U 10061A   23047.92768816 -.00000120  00000+0  00000+0 0  9994
2 37218   2.7693  39.8504 0001773 327.7391  11.7080  1.00270653 44996
ZHONGXING-20A           
1 37234U 10064A   23048.36380104 -.00000195  00000+0  00000+0 0  9996
2 37234   3.2645  85.8338 0002767 258.0282  19.7010  1.00271725 44837
HYLAS 1                 
1 37237U 10065A   23047.92673056  .00000101  00000+0  00000+0 0  9998
2 37237   2.5323  87.5675 0001929 249.9508 194.4574  1.00272266 44812
INTELSAT 17 (IS-17)     
1 37238U 10065B   23047.64271970 -.00000003  00000+0  00000+0 0  9999
2 37238   0.0193 134.7948 0002495 193.9348 114.9895  1.00272624 41030
BEIDOU 7                
1 37256U 10068A   23047.59553953 -.00000159  00000+0  00000+0 0  9992
2 37256  49.7714 286.7176 0023149 205.3174 336.0526  1.00290940 44597
EUTELSAT KA-SAT 9A      
1 37258U 10069A   23046.92688354  .00000064  00000+0  00000+0 0  9999
2 37258   0.0636 292.4145 0001037 132.9024  63.0153  1.00271940 31793
HISPASAT 30W-5          
1 37264U 10070A   23048.44007760 -.00000221  00000+0  00000+0 0  9999
2 37264   0.0217 123.3687 0002669 221.0081 291.1870  1.00269470 44477
KOREASAT 6              
1 37265U 10070B   23047.91677392 -.00000365  00000+0  00000+0 0  9994
2 37265   0.0175 141.5596 0001818 192.7354 258.3592  1.00273179 44572
BEIDOU 8                
1 37384U 11013A   23047.93771332 -.00000144  00000+0  00000+0 0  9990
2 37384  60.6533  51.8446 0024511 188.7189 349.8490  1.00289624 43470
INTELSAT NEW DAWN       
1 37392U 11016A   23047.85124574  .00000153  00000+0  00000+0 0  9992
2 37392   0.0135 180.3740 0000492 295.5847   9.8076  1.00271443 41099
YAHSAT 1A               
1 37393U 11016B   23048.07618816  .00000098  00000+0  00000+0 0  9993
2 37393   0.0145 119.1555 0001628 203.4579 264.0937  1.00270527 43362
SBIRS GEO-1 (USA 230)   
1 37481U 11019A   23047.85778313 -.00000006  00000+0  00000+0 0  9998
2 37481   2.1781  35.5386 0002034 284.8136 200.7003  1.00272172 43208
TELSTAR 14R             
1 37602U 11021A   23047.47353267 -.00000280  00000+0  00000+0 0  9995
2 37602   0.0174 102.9239 0002658 223.9656 286.7478  1.00270832 43633
GSAT-8                  
1 37605U 11022A   23047.92063376  .00000082  00000+0  00000+0 0  9997
2 37605   0.0303 261.8862 0007027  22.6214 248.6279  1.00270697 41022
ST-2                    
1 37606U 11022B   23048.22340965 -.00000215  00000+0  00000+0 0  9993
2 37606   0.0128 112.8237 0001943 245.2501 317.2936  1.00271319 43052
CHINASAT 10 (ZX 10)     
1 37677U 11026A   23047.91895744 -.00000355  00000+0  00000+0 0  9995
2 37677   0.0310 257.0206 0002605 315.9435  14.9991  1.00272990 42808
TIANLIAN 1-02           
1 37737U 11032A   23048.42688066 -.00000056  00000+0  00000+0 0  9991
2 37737   2.6504  73.6940 0081276 359.2461  34.8720  1.00269865 42534
GSAT-12                 
1 37746U 11034A   23048.21283148  .00000120  00000+0  00000+0 0  9993
2 37746   1.9986  89.6750 0007537 342.2030 199.5371  1.00272449 42766
SES-3                   
1 37748U 11035A   23048.38313227 -.00000106  00000+0  00000+0 0  9991
2 37748   0.0500 299.6150 0002342  21.3184 221.0614  1.00270962 42502
KAZSAT-2                
1 37749U 11035B   23048.59285517 -.00000203  00000+0  00000+0 0  9993
2 37749   0.0124 147.3867 0000472  95.7394 204.0501  1.00273684 42385
BEIDOU 9                
1 37763U 11038A   23047.83078111 -.00000073  00000+0  00000+0 0  9993
2 37763  54.4883 176.5067 0104197 227.6055 137.0368  1.00272706 42459
ASTRA 1N                
1 37775U 11041A   23047.84854365  .00000118  00000+0  00000+0 0  9993
2 37775   0.0519 358.2605 0004269  11.2110 101.7536  1.00273727 32335
BSAT-3C (JCSAT-110R)    
1 37776U 11041B   23047.84735623 -.00000353  00000+0  00000+0 0  9991
2 37776   0.0663 293.6495 0000247 133.9555 133.9345  1.00269262 38286
PAKSAT-1R               
1 37779U 11042A   23047.85229174  .00000151  00000+0  00000+0 0  9990
2 37779   0.0117  70.1284 0003065 333.3635  87.8352  1.00272206 42285
CHINASAT 1A (ZX 1A)     
1 37804U 11047A   23048.64508209  .00000092  00000+0  00000+0 0  9995
2 37804   0.5701  94.6227 0003687 260.9085  81.5224  1.00052564 41887
SES-2                   
1 37809U 11049A   23048.37202095 -.00000201  00000+0  00000+0 0  9999
2 37809   0.0608 288.1084 0002455  38.3584 227.5362  1.00271086 41806
ARABSAT-5C              
1 37810U 11049B   23047.84871796  .00000121  00000+0  00000+0 0  9992
2 37810   0.0564  33.5699 0002375 211.4763 227.0197  1.00272966 41862
EUTELSAT 7 WEST A       
1 37816U 11051A   23047.84322657 -.00000062  00000+0  00000+0 0  9993
2 37816   0.0637   4.8966 0003204 231.7627 206.1743  1.00271202 41703
QUETZSAT 1              
1 37826U 11054A   23048.33137569 -.00000246  00000+0  00000+0 0  9992
2 37826   0.0475 288.2738 0002463  46.1176 214.9331  1.00271532 41900
INTELSAT 18 (IS-18)     
1 37834U 11056A   23047.80879645  .00000050  00000+0  00000+0 0  9994
2 37834   0.0233  29.4246 0001863 313.2161 275.0305  1.00270067 41614
EUTELSAT 16A            
1 37836U 11057A   23048.37827365  .00000099  00000+0  00000+0 0  9995
2 37836   0.0676  10.9338 0005227 316.5097 331.7827  1.00272024 41597
VIASAT-1                
1 37843U 11059A   23047.89334640 -.00000026  00000+0  00000+0 0  9991
2 37843   0.0151 122.0366 0001831 218.6944  12.3366  1.00271229 42080
ASIASAT 7               
1 37933U 11069A   23046.24980087 -.00000328  00000+0  00000+0 0  9997
2 37933   0.0447 269.4780 0001612  40.9313  29.9888  1.00270526 41246
BEIDOU 10               
1 37948U 11073A   23048.21740169 -.00000114  00000+0  00000+0 0  9995
2 37948  49.8916 286.3636 0085226 220.1905 174.9149  1.00278710 41215
LUCH 5A                 
1 37951U 11074B   23047.80626867 -.00000053  00000+0  00000+0 0  9994
2 37951   5.6343  93.1634 0002399 243.7007 266.8605  1.00270482 40999
NIGCOMSAT 1R            
1 38014U 11077A   23048.28343502  .00000140  00000+0  00000+0 0  9999
2 38014   0.0499 297.6178 0004762  53.0205 300.8828  1.00274206 40830
FENGYUN 2F              
1 38049U 12002A   23047.85090866 -.00000361  00000+0  00000+0 0  9996
2 38049   4.3892  77.7442 0000397 198.1508 288.6994  1.00282594 40689
WGS F4 (USA 233)        
1 38070U 12003A   23048.40466169 -.00000219  00000+0  00000+0 0  9998
2 38070   0.0082 136.6078 0000065 204.5092  40.0417  1.00269966 40531
SES-4                   
1 38087U 12007A   23048.44007760 -.00000173  00000+0  00000+0 0  9991
2 38087   0.0267  71.8302 0002555 265.0187 306.7019  1.00272265 40296
BEIDOU 11               
1 38091U 12008A   23048.14493728  .00000053  00000+0  00000+0 0  9993
2 38091   2.1265  71.6234 0013276 308.9379 237.1402  1.00271442 40284
MUOS-1                  
1 38093U 12009A   23047.68119031 -.00000127  00000+0  00000+0 0  9999
2 38093   3.2444  37.8107 0056510 356.1417 257.6609  1.00271380 40249
INTELSAT 22 (IS-22)     
1 38098U 12011A   23047.89493784 -.00000061  00000+0  00000+0 0  9997
2 38098   0.0218  97.7078 0002591 228.8808 214.2795  1.00272208 39624
APSTAR 7                
1 38107U 12013A   23047.93169896 -.00000104  00000+0  00000+0 0  9997
2 38107   0.0271 112.2795 0002541 226.9739 219.2915  1.00271297 39974
